STARLINK-1806           
1 47549U 21009B   24227.23758766  .00004437  00000+0  31672-3 0  9991
2 47549  53.0601  61.4530 0000401  69.9483 290.1549 15.06378695194654
STARLINK-1909           
1 47550U 21009C   24227.24953907  .00009913  00000+0  68313-3 0  9994
2 47550  53.0533  51.4048 0002295  82.2777 277.8472 15.06418253194797
STARLINK-1938           
1 47551U 21009D   24227.31039501  .00007900  00000+0  54875-3 0  9990
2 47551  53.0555  71.1316 0001833  82.1223 277.9974 15.06394098194520
STARLINK-1940           
1 47552U 21009E   24227.51403425  .00004114  00000+0  29508-3 0  9992
2 47552  53.0522  60.2116 0001486  85.6162 274.4996 15.06376391194696
STARLINK-1953           
1 47554U 21009G   24227.32052455  .00031581  00000+0  21298-2 0  9991
2 47554  53.0535  81.0825 0001278  95.2195 264.8940 15.06395465194383
STARLINK-1954           
1 47555U 21009H   24227.29561286 -.00000955  00000+0 -45209-4 0  9998
2 47555  53.0539  71.1949 0001440 105.8244 254.2904 15.06420448194528
STARLINK-1955           
1 47556U 21009J   24227.33065744  .00002837  00000+0  20937-3 0  9991
2 47556  53.0533  91.0398 0001356  85.5144 274.6000 15.06376758194247
STARLINK-1956           
1 47557U 21009K   24227.36014418  .00026256  00000+0  17739-2 0  9993
2 47557  53.0548  90.9077 0001491  89.8709 270.2450 15.06422799194259
STARLINK-1957           
1 47558U 21009L   24227.27441090  .00011004  00000+0  75584-3 0  9992
2 47558  53.0574  61.2940 0000146  39.2948 320.8052 15.06431135195265
STARLINK-1958           
1 47559U 21009M   24227.50387206  .00004662  00000+0  33182-3 0  9997
2 47559  53.0494  50.2639 0002226  90.0581 270.0663 15.06384366195446
STARLINK-1959           
1 47560U 21009N   24227.49558115  .00014557  00000+0  99447-3 0  9996
2 47560  53.0503  50.2862 0001951  91.0928 269.0285 15.06386437194838
STARLINK-1960           
1 47561U 21009P   24226.28937412  .00007953  00000+0  55229-3 0  9996
2 47561  53.0542  75.7075 0002225  90.7740 269.3504 15.06393934194379
STARLINK-1961           
1 47562U 21009Q   24227.29932387  .00011089  00000+0  76225-3 0  9999
2 47562  53.0540  71.1805 0000874  85.1159 274.9930 15.06393927194523
STARLINK-1962           
1 47563U 21009R   24226.92335377  .00016764  00000+0  11428-2 0  9993
2 47563  53.0533  72.8641 0001609  80.4377 279.6794 15.06362523194460
STARLINK-1963           
1 47564U 21009S   24227.25601895  .00005953  00000+0  41841-3 0  9993
2 47564  53.0584  61.3746 0002121  85.9395 274.1836 15.06379740194653
STARLINK-1964           
1 47565U 21009T   24227.25232863  .00004451  00000+0  31764-3 0  9994
2 47565  53.0588  61.3894 0001530  91.8982 268.2182 15.06381963194651
STARLINK-1965           
1 47566U 21009U   24227.51128249  .00017330  00000+0  11800-2 0  9994
2 47566  53.0542  50.2309 0001687  80.3729 279.7451 15.06382436195445
STARLINK-1966           
1 47567U 21009V   24227.34909075  .00001402  00000+0  11300-3 0  9999
2 47567  53.0546  90.9582 0001566  81.3556 278.7610 15.06390955194247
STARLINK-1967           
1 47568U 21009W   24226.91044569  .00034448  00000+0  23170-2 0  9993
2 47568  53.0549  92.9258 0001482 117.6935 242.4204 15.06452179194798
STARLINK-1969           
1 47570U 21009Y   24227.33335648  .00466007  00000+0  34074-2 0  9999
2 47570  53.0477   6.0810 0003676 281.4738  15.5843 15.71291561  5729
STARLINK-1970           
1 47571U 21009Z   24227.24495971  .00014583  00000+0  99533-3 0  9996
2 47571  53.0466  61.4180 0000247 348.2783  11.8200 15.06418695194650
STARLINK-1971           
1 47572U 21009AA  24227.49191286  .00000146  00000+0  28731-4 0  9999
2 47572  53.0523  60.3146 0001393  93.8635 266.2513 15.06369915194694
STARLINK-1975           
1 47573U 21009AB  24227.27072516  .00009230  00000+0  63727-3 0  9996
2 47573  53.0584  61.3071 0000175  83.9342 276.1667 15.06425726195258
STARLINK-1976           
1 47574U 21009AC  24227.35277056  .00007336  00000+0  51073-3 0  9998
2 47574  53.0559  90.9360 0001671  87.5099 272.6082 15.06412665194249
STARLINK-1977           
1 47575U 21009AD  24227.34171941  .00001887  00000+0  14565-3 0  9994
2 47575  53.0523  90.9876 0001311  86.3077 273.8062 15.06372823194249
STARLINK-1978           
1 47576U 21009AE  24227.50756298  .00015764  00000+0  10750-2 0  9997
2 47576  53.0496  50.2493 0003337  84.0027 276.1342 15.06390960194837
STARLINK-1979           
1 47577U 21009AF  24227.28316539  .00020610  00000+0  13971-2 0  9997
2 47577  53.0547  66.2543 0000173 347.2884  12.8101 15.06435276194599
STARLINK-1980           
1 47578U 21009AG  24227.27720787  .00012051  00000+0  82636-3 0  9996
2 47578  53.0545  71.2798 0000935 105.3694 254.7398 15.06406243194513
STARLINK-1981           
1 47579U 21009AH  24227.25970659  .00022442  00000+0  15205-2 0  9992
2 47579  53.0571  61.3517 0002411  88.3388 271.7877 15.06404685194657
STARLINK-1982           
1 47580U 21009AJ  24227.28086629  .00012882  00000+0  88133-3 0  9990
2 47580  53.0496  71.2646 0000697 249.3038 110.7876 15.06432932194515
