OBJECT_NAME,OBJECT_ID,EPOCH,MEAN_MOTION,ECCENTRICITY,INCLINATION,RA_OF_ASC_NODE,ARG_OF_PERICENTER,MEAN_ANOMALY,EPHEMERIS_TYPE,CLASSIFICATION_TYPE,NORAD_CAT_ID,ELEMENT_SET_NO,REV_AT_EPOCH,BSTAR,MEAN_MOTION_DOT,MEAN_MOTION_DDOT
STARLINK-1806,2021-009B,2024-08-14T05:42:07.573824,15.06378695,.0000401,53.0601,61.4530,69.9483,290.1549,0,U,47549,999,19465,.31672E-3,.4437E-4,0
STARLINK-1909,2021-009C,2024-08-14T05:59:20.175648,15.06418253,.0002295,53.0533,51.4048,82.2777,277.8472,0,U,47550,999,19479,.68313E-3,.9913E-4,0
STARLINK-1938,2021-009D,2024-08-14T07:26:58.128864,15.06394098,.0001833,53.0555,71.1316,82.1223,277.9974,0,U,47551,999,19452,.54875E-3,.79E-4,0
STARLINK-1940,2021-009E,2024-08-14T12:20:12.559200,15.06376391,.0001486,53.0522,60.2116,85.6162,274.4996,0,U,47552,999,19469,.29508E-3,.4114E-4,0
STARLINK-1953,2021-009G,2024-08-14T07:41:33.321120,15.06395465,.0001278,53.0535,81.0825,95.2195,264.8940,0,U,47554,999,19438,.21298E-2,.31581E-3,0
STARLINK-1954,2021-009H,2024-08-14T07:05:40.951104,15.06420448,.000144,53.0539,71.1949,105.8244,254.2904,0,U,47555,999,19452,-.45209E-4,-.955E-5,0
STARLINK-1955,2021-009J,2024-08-14T07:56:08.802816,15.06376758,.0001356,53.0533,91.0398,85.5144,274.6000,0,U,47556,999,19424,.20937E-3,.2837E-4,0
STARLINK-1956,2021-009K,2024-08-14T08:38:36.457152,15.06422799,.0001491,53.0548,90.9077,89.8709,270.2450,0,U,47557,999,19425,.17739E-2,.26256E-3,0
STARLINK-1957,2021-009L,2024-08-14T06:35:09.101760,15.06431135,.0000146,53.0574,61.2940,39.2948,320.8052,0,U,47558,999,19526,.75584E-3,.11004E-3,0
STARLINK-1958,2021-009M,2024-08-14T12:05:34.545984,15.06384366,.0002226,53.0494,50.2639,90.0581,270.0663,0,U,47559,999,19544,.33182E-3,.4662E-4,0
STARLINK-1959,2021-009N,2024-08-14T11:53:38.211360,15.06386437,.0001951,53.0503,50.2862,91.0928,269.0285,0,U,47560,999,19483,.99447E-3,.14557E-3,0
STARLINK-1960,2021-009P,2024-08-13T06:56:41.923968,15.06393934,.0002225,53.0542,75.7075,90.7740,269.3504,0,U,47561,999,19437,.55229E-3,.7953E-4,0
STARLINK-1961,2021-009Q,2024-08-14T07:11:01.582368,15.06393927,.0000874,53.0540,71.1805,85.1159,274.9930,0,U,47562,999,19452,.76225E-3,.11089E-3,0
STARLINK-1962,2021-009R,2024-08-13T22:09:37.765728,15.06362523,.0001609,53.0533,72.8641,80.4377,279.6794,0,U,47563,999,19446,.11428E-2,.16764E-3,0
STARLINK-1963,2021-009S,2024-08-14T06:08:40.037280,15.06379740,.0002121,53.0584,61.3746,85.9395,274.1836,0,U,47564,999,19465,.41841E-3,.5953E-4,0
STARLINK-1964,2021-009T,2024-08-14T06:03:21.193632,15.06381963,.000153,53.0588,61.3894,91.8982,268.2182,0,U,47565,999,19465,.31764E-3,.4451E-4,0
STARLINK-1965,2021-009U,2024-08-14T12:16:14.807136,15.06382436,.0001687,53.0542,50.2309,80.3729,279.7451,0,U,47566,999,19544,.118E-2,.1733E-3,0
STARLINK-1966,2021-009V,2024-08-14T08:22:41.440800,15.06390955,.0001566,53.0546,90.9582,81.3556,278.7610,0,U,47567,999,19424,.113E-3,.1402E-4,0
STARLINK-1967,2021-009W,2024-08-13T21:51:02.507616,15.06452179,.0001482,53.0549,92.9258,117.6935,242.4204,0,U,47568,999,19479,.2317E-2,.34448E-3,0
STARLINK-1969,2021-009Y,2024-08-14T08:00:01.999872,15.71291561,.0003676,53.0477,6.0810,281.4738,15.5843,0,U,47570,999,572,.34074E-2,.466007E-2,0
STARLINK-1970,2021-009Z,2024-08-14T05:52:44.518944,15.06418695,.0000247,53.0466,61.4180,348.2783,11.8200,0,U,47571,999,19465,.99533E-3,.14583E-3,0
STARLINK-1971,2021-009AA,2024-08-14T11:48:21.271104,15.06369915,.0001393,53.0523,60.3146,93.8635,266.2513,0,U,47572,999,19469,.28731E-4,.146E-5,0
STARLINK-1975,2021-009AB,2024-08-14T06:29:50.653824,15.06425726,.0000175,53.0584,61.3071,83.9342,276.1667,0,U,47573,999,19525,.63727E-3,.923E-4,0
STARLINK-1976,2021-009AC,2024-08-14T08:27:59.376384,15.06412665,.0001671,53.0559,90.9360,87.5099,272.6082,0,U,47574,999,19424,.51073E-3,.7336E-4,0
STARLINK-1977,2021-009AD,2024-08-14T08:12:04.557024,15.06372823,.0001311,53.0523,90.9876,86.3077,273.8062,0,U,47575,999,19424,.14565E-3,.1887E-4,0
STARLINK-1978,2021-009AE,2024-08-14T12:10:53.441472,15.06390960,.0003337,53.0496,50.2493,84.0027,276.1342,0,U,47576,999,19483,.1075E-2,.15764E-3,0
STARLINK-1979,2021-009AF,2024-08-14T06:47:45.489696,15.06435276,.0000173,53.0547,66.2543,347.2884,12.8101,0,U,47577,999,19459,.13971E-2,.2061E-3,0
STARLINK-1980,2021-009AG,2024-08-14T06:39:10.759968,15.06406243,.0000935,53.0545,71.2798,105.3694,254.7398,0,U,47578,999,19451,.82636E-3,.12051E-3,0
STARLINK-1981,2021-009AH,2024-08-14T06:13:58.649376,15.06404685,.0002411,53.0571,61.3517,88.3388,271.7877,0,U,47579,999,19465,.15205E-2,.22442E-3,0
STARLINK-1982,2021-009AJ,2024-08-14T06:44:26.847456,15.06432932,.0000697,53.0496,71.2646,249.3038,110.7876,0,U,47580,999,19451,.88133E-3,.12882E-3,0
